ONEWEB-0201             
1 48241U 21031AH  22203.97736661 -.00000166  00000+0 -48113-3 0  9994
2 48241  87.9025 212.9788 0002086  86.0391 274.0977 13.14511246 61148
ONEWEB-0207             
1 48242U 21031AJ  22204.10526398  .00000110  00000+0  26295-3 0  9999
2 48242  87.9010 212.9260 0001828  82.2611 277.8726 13.14502143 61075
ONEWEB-0208             
1 48243U 21031AK  22204.08201934  .00000378  00000+0  98511-3 0  9999
2 48243  87.8998 212.9060 0002585  86.2600 273.8825 13.14503963 61089
ONEWEB-0200             
1 48244U 21031AL  22203.05654205 -.00000172  00000+0 -49760-3 0  9995
2 48244  87.9004 213.0994 0002631  86.2589 273.8842 13.14500945 60877
ONEWEB-0217             
1 48245U 21031AM  22203.53016191 -.00000107  00000+0 -32290-3 0  9993
2 48245  87.9006 213.0314 0002642  85.4433 274.6999 13.14501678 60895
ONEWEB-0211             
1 48767U 21045A   22203.32514507  .00000137  00000+0  33078-3 0  9994
2 48767  87.9103 182.9185 0002384  92.2429 267.8975 13.15548300 56949
ONEWEB-0223             
1 48768U 21045B   22204.18289034  .00000034  00000+0  55037-4 0  9990
2 48768  87.9112 182.7200 0002570  95.5673 264.5751 13.15546036 58188
ONEWEB-0230             
1 48769U 21045C   22203.31878998 -.00000055  00000+0 -17934-3 0  9996
2 48769  87.9145 182.9095 0002120  92.5774 267.5599 13.15553488 57191
ONEWEB-0237             
1 48770U 21045D   22204.29698938  .00000223  00000+0  55787-3 0  9993
2 48770  87.9134 182.5924 0002278 102.6258 257.5127 13.15549933 58177
ONEWEB-0235             
1 48771U 21045E   22203.66105740 -.00000084  00000+0 -25633-3 0  9992
2 48771  87.9153 182.7559 0002635 109.9350 250.2064 13.15549860 56958
ONEWEB-0242             
1 48772U 21045F   22203.65474030  .00000033  00000+0  53881-4 0  9992
2 48772  87.9103 182.8134 0001958  95.1497 264.9856 13.15550507 56994
ONEWEB-0241             
1 48773U 21045G   22204.17446039  .00000065  00000+0  13987-3 0  9996
2 48773  87.9097 182.6867 0002747  88.7870 271.3575 13.15548331 58105
ONEWEB-0243             
1 48774U 21045H   22203.36950744 -.00000037  00000+0 -13119-3 0  9998
2 48774  87.9153 182.8644 0002146 104.2290 255.9079 13.15549930 56894
ONEWEB-0222             
1 48775U 21045J   22203.89133253 -.00000354  00000+0 -97520-3 0  9995
2 48775  87.9148 182.7852 0002424  91.9767 268.1641 13.15547535 57003
ONEWEB-0244             
1 48776U 21045K   22204.23042725  .00000136  00000+0  32728-3 0  9993
2 48776  87.9092 182.6630 0001947 109.0487 251.0855 13.15550224 58732
ONEWEB-0247             
1 48777U 21045L   22204.21248948 -.00000141  00000+0 -40989-3 0  9993
2 48777  87.9102 182.6571 0002529 105.7113 254.4297 13.15546856 58187
ONEWEB-0245             
1 48778U 21045M   22204.20824549 -.00000073  00000+0 -22884-3 0  9998
2 48778  87.9157 182.6611 0002584  84.0419 276.1006 13.15550352 58154
ONEWEB-0229             
1 48779U 21045N   22203.89767796 -.00000034  00000+0 -12325-3 0  9999
2 48779  87.9153 182.7141 0002474  93.7885 266.3528 13.15549788 57017
ONEWEB-0228             
1 48780U 21045P   22203.38007628  .00000117  00000+0  27743-3 0  9996
2 48780  87.9131 182.8298 0002087  94.8863 265.2506 13.15548302 56864
ONEWEB-0232             
1 48781U 21045Q   22204.21035985 -.00000047  00000+0 -15948-3 0  9995
2 48781  87.9040 182.8023 0002344  85.2332 274.9066 13.15553855 58411
ONEWEB-0231             
1 48782U 21045R   22203.65684154 -.00000089  00000+0 -26971-3 0  9995
2 48782  87.9016 182.8349 0002324  99.8003 260.3389 13.15547477 58050
ONEWEB-0234             
1 48783U 21045S   22203.37796653  .00000119  00000+0  28241-3 0  9997
2 48783  87.9104 182.8665 0002303  83.4877 276.6515 13.15549860 57019
ONEWEB-0238             
1 48784U 21045T   22204.22623503  .00000039  00000+0  68402-4 0  9991
2 48784  87.9140 182.7248 0002272  82.6708 277.4681 13.15547754 58154
ONEWEB-0240             
1 48785U 21045U   22204.17233923  .00000073  00000+0  15877-3 0  9994
2 48785  87.9101 182.7008 0002831  90.9759 269.1696 13.15550055 58168
ONEWEB-0246             
1 48786U 21045V   22204.16810317  .00000067  00000+0  14360-3 0  9991
2 48786  87.9095 182.7072 0002268  98.6556 261.4832 13.15550085 58032
ONEWEB-0210             
1 48787U 21045W   22204.21881799  .00000001  00000+0 -30560-4 0  9990
2 48787  87.9100 182.7001 0002010 113.5909 246.5432 13.15547652 58098
ONEWEB-0214             
1 48788U 21045X   22204.22936090  .00000138  00000+0  33177-3 0  9993
2 48788  87.9111 182.7242 0001747 118.2631 241.8676 13.15550046 58053
ONEWEB-0221             
1 48789U 21045Y   22204.23572143  .00000153  00000+0  37244-3 0  9996
2 48789  87.9097 182.7105 0002302  93.4131 266.7262 13.15549862 58165
ONEWEB-0213             
1 48790U 21045Z   22203.91879248  .00000020  00000+0  18427-4 0  9994
2 48790  87.9162 182.7687 0002286  99.4635 260.6754 13.15549843 58170
ONEWEB-0212             
1 48791U 21045AA  22203.97585647 -.00000069  00000+0 -21815-3 0  9997
2 48791  87.9158 182.7834 0002004  78.9677 281.1678 13.15549033 58181
ONEWEB-0227             
1 48792U 21045AB  22203.96952706 -.00000052  00000+0 -17222-3 0  9990
2 48792  87.9179 182.7837 0002455  89.2192 270.9220 13.15548256 58124
ONEWEB-0226             
1 48793U 21045AC  22203.65895320 -.00000046  00000+0 -15661-3 0  9993
2 48793  87.9154 182.7908 0002195 109.6735 250.4632 13.15549145 58047
ONEWEB-0224             
1 48794U 21045AD  22204.30966593  .00000157  00000+0  38394-3 0  9997
2 48794  87.9091 182.6679 0002400  76.2895 283.8502 13.15547461 58053
ONEWEB-0233             
1 48795U 21045AE  22204.17552346  .00000053  00000+0  10559-3 0  9998
2 48795  87.9161 182.6904 0002465  86.6910 273.4502 13.15548573 58046
ONEWEB-0190             
1 48796U 21045AF  22203.31247575  .00000195  00000+0  48393-3 0  9993
2 48796  87.9163 182.8516 0002910 113.2477 246.8960 13.15550301 56895
ONEWEB-0236             
1 48797U 21045AG  22203.63360760  .00000261  00000+0  65817-3 0  9995
2 48797  87.9098 182.8498 0002147  89.6258 270.5118 13.15549942 56828
ONEWEB-0248             
1 48798U 21045AH  22203.64626166  .00000049  00000+0  96077-4 0  9999
2 48798  87.9101 182.8199 0003180  94.7294 265.4199 13.15548072 58105
ONEWEB-0225             
1 48799U 21045AJ  22203.36316576 -.00000057  00000+0 -18480-3 0  9992
2 48799  87.9143 182.9050 0002687  99.5147 260.6287 13.15550184 56953
ONEWEB-0215             
1 48800U 21045AK  22204.17021857 -.00003195  00000+0 -85218-2 0  9998
2 48800  87.9098 182.7123 0003318  93.4009 266.7501 13.15565963 58056
ONEWEB-0216             
1 48801U 21045AL  22203.64838062  .00000047  00000+0  90768-4 0  9993
2 48801  87.9140 182.8551 0001786  93.5309 266.6025 13.15547675 56870
ONEWEB-0239             
1 48802U 21045AM  22203.65260010  .00000009  00000+0 -99717-5 0  9990
2 48802  87.9145 182.8572 0002990  99.6290 260.5178 13.15546231 56917
ONEWEB-0249             
1 48967U 21060A   22204.10813146 -.00000003  00000+0 -42158-4 0  9995
2 48967  87.9140 152.4954 0001989  85.8222 274.3136 13.16591373 53383
ONEWEB-0250             
1 48968U 21060B   22204.26474896 -.00000043  00000+0 -14505-3 0  9996
2 48968  87.9141 152.4676 0002431  86.4896 273.6513 13.16595955 53384
ONEWEB-0252             
1 48970U 21060D   22203.83639862  .00000100  00000+0  22842-3 0  9992
2 48970  87.9116 152.5365 0002033  92.0489 268.0875 13.16594055 52102
ONEWEB-0253             
1 48971U 21060E   22203.29520349 -.00001478  00000+0 -38990-2 0  9993
2 48971  87.9124 152.6689 0001274  53.4974 306.6275 13.16602458 51961
ONEWEB-0254             
1 48972U 21060F   22204.29007527  .00000122  00000+0  28453-3 0  9990
2 48972  87.9126 152.4308 0002289  95.1776 264.9616 13.16596568 53376
ONEWEB-0255             
1 48973U 21060G   22203.26526385 -.00000031  00000+0 -11414-3 0  9995
2 48973  87.9138 152.7122 0002141  84.5779 275.5596 13.16596352 52037
ONEWEB-0256             
1 48974U 21060H   22203.29060792 -.00000572  00000+0 -15289-2 0  9997
2 48974  87.9123 152.6635 0001511  68.2466 291.8826 13.16595782 52002
ONEWEB-0257             
1 48975U 21060J   22203.32284052  .00000091  00000+0  20441-3 0  9990
2 48975  87.9133 152.6947 0001926  92.2815 267.8536 13.16595257 51967
ONEWEB-0258             
1 48976U 21060K   22204.23711414  .00000085  00000+0  18791-3 0  9997
2 48976  87.9141 152.5133 0002189  85.5626 274.5755 13.16595880 53377
ONEWEB-0259             
1 48977U 21060L   22203.62451381  .00000087  00000+0  19332-3 0  9998
2 48977  87.9143 152.6113 0002575  92.7987 267.3438 13.16596193 52047
ONEWEB-0260             
1 48978U 21060M   22204.30159641  .00000133  00000+0  31417-3 0  9999
2 48978  87.9127 152.4764 0001313 104.1517 255.9760 13.16594462 53393
ONEWEB-0261             
1 48979U 21060N   22203.27909690 -.00000023  00000+0 -92587-4 0  9998
2 48979  87.9130 152.6834 0002013  94.2433 265.8928 13.16595367 52033
ONEWEB-0262             
1 48980U 21060P   22203.33665255 -.00000105  00000+0 -30740-3 0  9996
2 48980  87.9151 152.6252 0002754  90.2105 269.9342 13.16596029 52004
ONEWEB-0263             
1 48981U 21060Q   22203.29290870 -.00000222  00000+0 -61324-3 0  9991
2 48981  87.9152 152.6311 0001527  14.5807 345.5368 13.16596232 51966
ONEWEB-0264             
1 48982U 21060R   22203.32861626  .00000067  00000+0  14172-3 0  9993
2 48982  87.9165 152.5832 0002123  86.7350 273.4024 13.16591176 51976
ONEWEB-0266             
1 48984U 21060T   22204.26245023 -.00000017  00000+0 -77263-4 0  9994
2 48984  87.9149 152.4535 0002172  80.1343 280.0033 13.16594543 53385
ONEWEB-0267             
1 48985U 21060U   22203.36198936 -.00000013  00000+0 -67399-4 0  9990
2 48985  87.9132 152.6324 0002036 100.1655 259.9705 13.16595216 51976
ONEWEB-0268             
1 48986U 21060V   22204.24169727  .00000073  00000+0  15678-3 0  9991
2 48986  87.9149 152.4598 0001915  83.3358 276.7990 13.16598845 53643
